#cP2024  9 19 18  0  0.00000000     192 d     IGS20 FIT  USN
## 2332 410400.00000000   900.00000000 60572 0.7500000000000
+   30   G02G03G04G05G06G07G08G09G10G11G12G13G14G15G16G18G19
+        G20G21G22G23G24G25G26G27G28G29G30G31G32  0  0  0  0
+          0  0  0  0  0  0  0  0  0  0  0  0  0  0  0  0  0
+          0  0  0  0  0  0  0  0  0  0  0  0  0  0  0  0  0
+          0  0  0  0  0  0  0  0  0  0  0  0  0  0  0  0  0
++         3  3  4  3  3  3  2  3  3  3  3  3  3  3  3  3  3
++         3  3  3  3  3  3  3  0  3  3  3  3  3  0  0  0  0
++         0  0  0  0  0  0  0  0  0  0  0  0  0  0  0  0  0
++         0  0  0  0  0  0  0  0  0  0  0  0  0  0  0  0  0
++         0  0  0  0  0  0  0  0  0  0  0  0  0  0  0  0  0
%c G  cc GPS ccc cccc cccc cccc cccc ccccc ccccc ccccc ccccc
%c cc cc ccc ccc cccc cccc cccc cccc ccccc ccccc ccccc ccccc
%f  1.2500000  1.025000000  0.00000000000  0.000000000000000
%f  0.0000000  0.000000000  0.00000000000  0.000000000000000
%i    0    0    0    0      0      0      0      0         0
%i    0    0    0    0      0      0      0      0         0
/* USNO Ultra-Rapid GPS Orbits                              
/*                                                          
/* computer: dc-dev-eo-gpsad101                             
/* PCV:IGS20_2233 OL/AL:FES2004  NONE     YN ORB:CoN CLK:CoN
*  2024  9 21  3  0  0.00000000
PG02  14112.678334 -22182.223395  -1664.514297   -353.714823               P   P
PG03   7749.364058 -13286.487499 -21805.532342    544.847389               P   P
PG04   2749.702387 -22401.482949 -13872.503377    447.519632               P   P
PG05 -22464.337006   5962.875606  12733.683048   -187.272177               P   P
PG06 -14762.205584  -4546.246615 -21556.704066     16.585044               P   P
PG07    261.489954 -20054.647916  17707.375310    -35.480524               P   P
PG08  10393.133650 -13089.730515  20430.710518    359.446675               P   P
PG09  -6450.522215 -25305.562393  -4752.471713    365.294534               P   P
PG10  22455.638431  10670.305436  10022.065447   -132.052397               P   P
PG11 -20945.502890   9076.161334 -13490.465901   -736.794560               P   P
PG12 -12240.589667  11839.741978 -20650.643958   -539.566708               P   P
PG13 -14294.911344   4163.334522  21760.089030    677.572608               P   P
PG14 -19490.385122 -13128.165236  12640.330238    500.224010               P   P
PG15  -8400.699495  14857.308112  19792.777910    206.676524               P   P
PG16  24997.503827   -111.525012   9267.447578   -175.499345               P   P
PG18   -552.239513  19375.557818  18078.429604   -654.481326               P   P
PG19 -15691.154735 -13023.280132 -17394.594006    540.721612               P   P
PG20 -26346.421064   1684.793896   2086.966630    370.431481               P   P
PG21  16802.035312 -19484.865825   4017.779108    101.347302               P   P
PG22 -23648.145887 -10459.734345   5729.216282    -63.860940               P   P
PG23  11365.431981  14608.049670  19161.718380    324.721782               P   P
PG24 -14311.382965  22103.897969   -760.194609   -486.478282               P   P
PG25   1798.262226  15893.177107 -21575.185021    499.629420               P   P
PG26  26184.957644   4661.951214  -3173.298682     74.218113               P   P
PG27  15505.420677  -1116.391037  21288.059708    -33.895382               P   P
PG28  13852.278838   6777.367761 -21638.184008   -418.646968               P   P
PG29   2303.214534  25485.136661  -6914.295759   -576.508730               P   P
PG30  -9264.611095 -13261.594361  21184.530967   -317.402336               P   P
PG31  20231.786443  -4979.328768 -16921.652755   -224.439157               P   P
PG32  15449.144731  18356.639024 -11397.421017   -595.135725               P   P
*  2024  9 21  3 15  0.00000000
PG02  14375.272420 -22102.333153   1224.056120   -353.707633               P   P
PG03  10129.060567 -12893.118197 -21037.355902    544.859149               P   P
PG04   3511.110575 -20855.128573 -15965.215340    447.525945               P   P
PG05 -23780.864651   5655.434331  10289.345224   -187.273279               P   P
PG06 -13213.055106  -6508.956207 -22042.315115     16.561359               P   P
PG07   1551.900786 -21396.911780  15883.940792    -35.476676               P   P
PG08  11462.848857 -10923.871806  21153.970113    359.458124               P   P
PG09  -5942.828830 -24772.533329  -7492.708053    365.309019               P   P
PG10  21203.495767  10626.036189  12508.624795   -132.063673               P   P
PG11 -19995.919376   7687.582925 -15626.283409   -736.798208               P   P
PG12 -14416.048540  11283.038991 -19507.179753   -539.569194               P   P
PG13 -14907.188504   1705.759139  21702.217884    677.574425               P   P
PG14 -17916.801856 -13092.187375  14806.243685    500.231684               P   P
PG15  -9741.024803  12830.731028  20575.613794    206.680497               P   P
PG16  25867.241755    304.405804   6633.559979   -175.490241               P   P
PG18  -1902.773363  20812.565920  16279.183263   -654.483194               P   P
PG19 -16074.653616 -14828.823918 -15516.252340    540.725998               P   P
PG20 -26426.462956   1405.150378   -765.612751    370.431126               P   P
PG21  16751.815572 -18811.101966   6844.685671    101.346610               P   P
PG22 -22840.320894 -10537.717979   8445.229367    -63.864250               P   P
PG23   9122.098400  14435.544182  20431.479091    324.729319               P   P
PG24 -14553.017031  21805.800969   2064.951625   -486.477908               P   P
PG25   -598.663672  15620.206569 -21820.557354    499.629407               P   P
PG26  25672.087519   4936.861661  -5882.681495     74.210304               P   P
PG27  16405.583250   1167.750625  20647.071242    -33.895493               P   P
PG28  12400.353394   8790.236703 -21794.145795   -418.659339               P   P
PG29   1805.183029  24656.620450  -9581.258246   -576.506510               P   P
PG30  -7744.358821 -15080.832457  20540.011742   -317.395861               P   P
PG31  19084.953526  -3362.969372 -18560.385577   -224.438776               P   P
PG32  15708.315606  19529.604159  -8879.332691   -595.132358               P   P
*  2024  9 21  3 30  0.00000000
PG02  14475.518133 -21753.255672   4091.210531   -353.700441               P   P
PG03  12422.292724 -12642.997554 -19911.719195    544.870909               P   P
PG04   4440.554032 -19147.760838 -17781.257854    447.532258               P   P
PG05 -24823.188169   5429.464466   7667.126593   -187.274389               P   P
PG06 -11757.255779  -8584.393784 -22146.534359     16.537678               P   P
PG07   2653.649195 -22625.229625  13791.255420    -35.472831               P   P
PG08  12665.707330  -8763.226144  21507.594309    359.469571               P   P
PG09  -5272.173218 -23996.355174 -10103.911474    365.323500               P   P
PG10  19684.906972  10631.614750  14785.943462   -132.074948               P   P
PG11 -18983.697645   6070.025714 -17491.855622   -736.801855               P   P
PG12 -16474.634380  10862.908077 -18035.191497   -539.571680               P   P
PG13 -15640.343832   -686.049210  21263.420246    677.576241               P   P
PG14 -16114.527240 -13111.751389  16720.656182    500.239358               P   P
PG15 -11212.935780  10812.112116  20986.761072    206.684465               P   P
PG16  26457.880155    620.530676   3887.317763   -175.481131               P   P
PG18  -3046.645813  22141.653580  14197.617863   -654.485064               P   P
PG19 -16479.940303 -16398.021933 -13378.401320    540.730382               P   P
PG20 -26198.989075   1097.419495  -3604.881945    370.430768               P   P
PG21  16576.261580 -17861.899358   9547.558845    101.345920               P   P
PG22 -21745.453299 -10603.981639  11015.498918    -63.867559               P   P
PG23   6747.193433  14381.852960  21352.333453    324.736854               P   P
PG24 -14655.840259  21237.037944   4853.439869   -486.477534               P   P
PG25  -3015.961459  15470.109777 -21702.134703    499.629396               P   P
PG26  24876.565862   5236.153906  -8493.464228     74.202492               P   P
PG27  17379.578239   3313.287770  19644.191612    -33.895604               P   P
PG28  11057.611132  10873.346941 -21575.564195   -418.671709               P   P
PG29   1158.580429  23582.320124 -12082.470674   -576.504290               P   P
PG30  -6364.090931 -16897.858751  19544.931876   -317.389387               P   P
PG31  17926.500400  -1553.384873 -19889.354688   -224.438394               P   P
PG32  15900.969710  20421.480542  -6208.901354   -595.128989               P   P
EOF
